KUIPER-00044            
1 64505U 25134F   25217.16263431  .00012625  00000+0  67168-3 0  9994
2 64505  51.8739 127.3835 0011481 273.0060  86.9603 15.15537976  7296
KUIPER-00046            
1 64506U 25134G   25217.58335648 -.00815663  00000+0 -41847-1 0  9990
2 64506  51.8743 124.3247 0008920 281.2328  39.2899 15.18781525  7391
KUIPER-00047            
1 64507U 25134H   25217.44679497  .00023192  00000+0  69158-3 0  9992
2 64507  51.8615 124.0654 0009704 280.3487  79.6404 15.34507808  7844
KUIPER-00048            
1 64508U 25134J   25217.45652500  .00033467  00000+0  93040-3 0  9993
2 64508  51.8774 123.4435 0003534 256.4599 103.5994 15.36544350  7851
KUIPER-00049            
1 64509U 25134K   25217.15654072  .00051883  00000+0  14720-2 0  9996
2 64509  51.8714 125.1625 0006699 260.9807  99.0421 15.35691780  7788
KUIPER-00050            
1 64510U 25134L   25217.16265894  .00033528  00000+0  97123-3 0  9994
2 64510  51.8703 125.2040 0007446 255.0129 105.0033 15.35237139  7346
KUIPER-00051            
1 64511U 25134M   25217.01940524  .00030893  00000+0  88015-3 0  9991
2 64511  51.8726 125.7521 0005448 252.6857 107.3533 15.35811835  7781
KUIPER-00052            
1 64512U 25134N   25217.58335648  .01436977  00000+0  21899-1 0  9998
2 64512  51.8759 122.0054 0003735 286.2741  99.8069 15.51237543  5953
